NUSAT-1 (FRESCO)        
1 41557U 16033B   22029.92513970  .00006625  00000+0  22146-3 0  9992
2 41557  97.3898 127.8114 0012945 145.0575 326.5783 15.31259797316160
BEESAT-4                
1 41619U 16040W   22029.90553420  .00007750  00000+0  29118-3 0  9997
2 41619  97.2402  84.4749 0008648 245.5675 114.4662 15.27411923299552
CAS-2T & KS-1Q          
1 41847U 16066G   22029.78159537  .00000439  00000+0  77211-4 0  9990
2 41847  98.5715  94.4985 0363636 264.4715  91.4903 14.38338020274412
NAYIF-1 (EO-88)         
1 42017U 17008BX  22029.40179694  .00009093  00000+0  31218-3 0  9993
2 42017  97.2901  97.8744 0006389  38.8233 321.3466 15.30338725275787
ZHUHAI-1 02 (CAS-4B)    
1 42759U 17034B   22029.84961582  .00001867  00000+0  12360-3 0  9996
2 42759  43.0185  15.9922 0006885 144.6783 289.4349 15.10789918255389
ZHUHAI-1 01 (CAS-4A)    
1 42761U 17034D   22029.82700825  .00001900  00000+0  12524-3 0  9998
2 42761  43.0183  15.0049 0007153 145.0623 286.3783 15.10878085255380
MAX VALIER SAT          
1 42778U 17036P   22029.87791596  .00004284  00000+0  17518-3 0  9994
2 42778  97.2274  75.8163 0013227  96.6768 263.5976 15.24784837255771
RADFXSAT (FOX-1B)       
1 43017U 17073E   22029.71345187  .00003073  00000+0  24002-3 0  9997
2 43017  97.6910 289.5609 0251065 281.8061  75.5093 14.80273098226587
FOX-1D (AO-92)          
1 43137U 18004AC  22029.84582297  .00005640  00000+0  21738-3 0  9999
2 43137  97.3853 106.4555 0009566 126.7431 233.4687 15.26691176225186
DIWATA-2B               
1 43678U 18084H   22029.76076106  .00000068  00000+0  12519-4 0  9992
2 43678  97.9483 161.6270 0010703  30.7873 329.3977 14.91892996177173
ES'HAIL 2               
1 43700U 18090A   22029.86742865  .00000140  00000+0  00000+0 0  9996
2 43700   0.0259  85.8441 0002056 261.6697 119.6247  1.00270126 11643
FOX-1CLIFF (AO-95)      
1 43770U 18099N   22029.87197640  .00001724  00000+0  15965-3 0  9997
2 43770  97.6400  99.7771 0014902  26.2972 333.9003 14.95712521172292
ITASAT 1                
1 43786U 18099AE  22029.74992250  .00001325  00000+0  12311-3 0  9999
2 43786  97.6425 100.4922 0015477  19.4986 340.6824 14.95956427172315
JY1SAT (JO-97)          
1 43803U 18099AX  22029.73834350  .00001877  00000+0  17084-3 0  9998
2 43803  97.6385 100.2177 0015236  19.2006 340.9786 14.96284138172329
UWE-4                   
1 43880U 18111E   22029.70237956  .00001738  00000+0  15456-3 0  9991
2 43880  97.6786 298.4528 0013924  68.2919 291.9784 14.97319809168938
NEXUS (FO-99)           
1 43937U 19003F   22029.68145653  .00006942  00000+0  25963-3 0  9990
2 43937  97.1505  68.6332 0020461 290.8251  69.0797 15.27435692168774
PSAT2 (NO-104)          
1 44354U 19036R   22029.38933251  .00041810  00000+0  48826-3 0  9992
2 44354  28.5294  50.4545 0287092 222.3585 135.4510 15.23766616143336
BRICSAT2 (NO-103)       
1 44355U 19036S   22029.87702289  .00149581 -79009-6  99469-3 0  9998
2 44355  28.5234 310.3907 0168240  24.6284 336.2247 15.57041157144380
JAISAT-1                
1 44419U 19038F   22029.89994219  .00004524  00000+0  24508-3 0  9995
2 44419  97.6189 359.3208 0018660 249.5702 110.3526 15.14986195142064
DUCHIFAT-3              
1 44854U 19089C   22029.85700292  .00001785  00000+0  14693-3 0  9996
2 44854  36.9645 201.2950 0006977 184.1601 317.9953 15.00032188117104
CAS-6 (TO-108)          
1 44881U 19093C   22029.79566828  .00000250  00000+0  38589-4 0  9996
2 44881  97.9059 110.9452 0013561 278.5352  81.4326 14.81551191114248
RS-44 & BREEZE-KM R/B   
1 44909U 19096E   22029.88625063 -.00000005  00000+0 -58330-4 0  9993
2 44909  82.5244 322.3534 0216361 283.8503  73.8612 12.79712027 97789
ORBITAL FACTORY 2 (OF-2)
1 45113U 19071C   22029.34462019  .00013494  00000+0  35395-3 0  9994
2 45113  51.6413  20.1698 0011528  34.6583 325.5150 15.38901466111915
HUSKYSAT-1 (HO-107)     
1 45119U 19071J   22029.23704995  .00013492  00000+0  35670-3 0  9994
2 45119  51.6413  20.1871 0010933  30.6783 329.4838 15.38663732111895
BY70-2                  
1 45857U 20042B   22029.78415589  .00002906  00000+0  40980-3 0  9999
2 45857  97.9670 108.1063 0010842 197.0231 163.0629 14.77972793 84966
SALSAT                  
1 46495U 20068K   22029.79215324  .00001482  00000+0  11200-3 0  9993
2 46495  97.7159 331.2487 0017520  30.2206 330.0026 15.03814105 73343
BY70-3                  
1 46839U 20079N   22029.88373324  .00009838  00000+0  27869-3 0  9993
2 46839  97.2174 104.2936 0008184 109.4573   3.1650 15.36433670 68936
RADFXSAT-2 (AO-109)     
1 47311U 21002C   22029.90944084  .00006068  00000+0  26569-3 0  9994
2 47311  60.6852 162.7821 0025421 165.9161 194.2641 15.22953251 57346
UVSQ-SAT                
1 47438U 21006AB  22029.69059324  .00003232  00000+0  18118-3 0  9999
2 47438  97.4591  91.5859 0013406  42.0967 318.1292 15.14015260 56273
DIY-1 (ARDUIQUBE)       
1 47963U 21022AH  22029.69207289  .00008809  00000+0  55494-3 0  9998
2 47963  97.5448 293.0422 0016914 250.3327 109.6077 15.09276370 45990
XW-3 (CAS-9)            
1 50466U 21131B   22029.82013072 -.00000003  00000+0  13714-4 0  9990
2 50466  98.5943 107.0761 0004596 185.5843 174.5290 14.38437605  4981
